start=new Date('2021-09-05T00:00:00.000Z').valueOf();
sats=[{"MEAN_ANOMALY":"17.5919","COUNTRY_CODE":"US","EPHEMERIS_TYPE":"0","SEMIMAJOR_AXIS":"6727.777","OBJECT_NAME":"STARLINK-2116","NORAD_CAT_ID":"47724","OBJECT_TYPE":"PAYLOAD","SITE":"AFETR","INCLINATION":"53.0442","PERIOD":"91.531","APOAPSIS":"352.220","RCS_SIZE":"LARGE","DECAY_DATE":null,"CLASSIFICATION_TYPE":"U","PERIAPSIS":"347.064","LAUNCH_DATE":"2021-03-04","ECCENTRICITY":"0.00038320","MEAN_MOTION_DOT":"0.00024254","BSTAR":"0.00017635000000","TLE_LINE2":"2 47724  53.0442 348.3878 0003832 342.4967  17.5919 15.73241310 30266","RA_OF_ASC_NODE":"348.3878","REV_AT_EPOCH":"3026","MEAN_ELEMENT_THEORY":"SGP4","TIME_SYSTEM":"UTC","CENTER_NAME":"EARTH","ARG_OF_PERICENTER":"342.4967","REF_FRAME":"TEME","TLE_LINE1":"1 47724U 21017C   21247.60470721  .00024254  00000-0  17635-3 0  9990","MEAN_MOTION_DDOT":"0.0000000000000","GP_ID":"184106202","ELEMENT_SET_NO":"999","FILE":"3108751","OBJECT_ID":"2021-017C","EPOCH":"2021-09-04T14:30:46.702944","MEAN_MOTION":"15.73241310"},{"NORAD_CAT_ID":"47725","MEAN_ANOMALY":"248.8465","EPHEMERIS_TYPE":"0","COUNTRY_CODE":"US","OBJECT_NAME":"STARLINK-2125","SEMIMAJOR_AXIS":"6925.337","APOAPSIS":"548.309","PERIOD":"95.592","CLASSIFICATION_TYPE":"U","RCS_SIZE":"LARGE","DECAY_DATE":null,"OBJECT_TYPE":"PAYLOAD","INCLINATION":"53.0570","SITE":"AFETR","TIME_SYSTEM":"UTC","ARG_OF_PERICENTER":"111.2695","CENTER_NAME":"EARTH","REF_FRAME":"TEME","LAUNCH_DATE":"2021-03-04","PERIAPSIS":"546.096","ECCENTRICITY":"0.00015980","MEAN_MOTION_DOT":"0.00001072","BSTAR":"0.00009084000000","MEAN_ELEMENT_THEORY":"SGP4","REV_AT_EPOCH":"2962","TLE_LINE2":"2 47725  53.0570  35.3013 0001598 111.2695 248.8465 15.06403621 29624","RA_OF_ASC_NODE":"35.3013","FILE":"3108751","MEAN_MOTION":"15.06403621","EPOCH":"2021-09-04T16:24:56.619360","OBJECT_ID":"2021-017D","TLE_LINE1":"1 47725U 21017D   21247.68398865  .00001072  00000-0  90840-4 0  9990","GP_ID":"184104451","MEAN_MOTION_DDOT":"0.0000000000000","ELEMENT_SET_NO":"999"},{"PERIOD":"95.592","APOAPSIS":"548.189","RCS_SIZE":"LARGE","DECAY_DATE":null,"CLASSIFICATION_TYPE":"U","OBJECT_TYPE":"PAYLOAD","SITE":"AFETR","INCLINATION":"53.0568","NORAD_CAT_ID":"47726","MEAN_ANOMALY":"243.4370","EPHEMERIS_TYPE":"0","COUNTRY_CODE":"US","SEMIMAJOR_AXIS":"6925.360","OBJECT_NAME":"STARLINK-2126","FILE":"3108751","OBJECT_ID":"2021-017E","MEAN_MOTION":"15.06396267","EPOCH":"2021-09-04T16:03:44.983296","TLE_LINE1":"1 47726U 21017E   21247.66927064  .00001042  00000-0  88846-4 0  9998","GP_ID":"184104701","MEAN_MOTION_DDOT":"0.0000000000000","ELEMENT_SET_NO":"999","TIME_SYSTEM":"UTC","CENTER_NAME":"EARTH","ARG_OF_PERICENTER":"116.6761","REF_FRAME":"TEME","PERIAPSIS":"546.261","LAUNCH_DATE":"2021-03-04","ECCENTRICITY":"0.00013920","MEAN_MOTION_DOT":"0.00001042","BSTAR":"0.00008884600000","TLE_LINE2":"2 47726  53.0568  35.3665 0001392 116.6761 243.4370 15.06396267 29612","RA_OF_ASC_NODE":"35.3665","REV_AT_EPOCH":"2961","MEAN_ELEMENT_THEORY":"SGP4"},{"REF_FRAME":"TEME","CENTER_NAME":"EARTH","ARG_OF_PERICENTER":"342.0525","TIME_SYSTEM":"UTC","RA_OF_ASC_NODE":"348.0673","TLE_LINE2":"2 47727  53.0440 348.0673 0004382 342.0525  18.0337 15.73216954 30316","REV_AT_EPOCH":"3031","MEAN_ELEMENT_THEORY":"SGP4","BSTAR":"0.00021425000000","MEAN_MOTION_DOT":"0.00029591","ECCENTRICITY":"0.00043820","LAUNCH_DATE":"2021-03-04","PERIAPSIS":"346.764","OBJECT_ID":"2021-017F","EPOCH":"2021-09-04T16:02:06.469152","MEAN_MOTION":"15.73216954","FILE":"3108751","ELEMENT_SET_NO":"999","GP_ID":"184105952","MEAN_MOTION_DDOT":"0.0000000000000","TLE_LINE1":"1 47727U 21017F   21247.66813043  .00029591  00000-0  21425-3 0  9998","NORAD_CAT_ID":"47727","SEMIMAJOR_AXIS":"6727.847","OBJECT_NAME":"STARLINK-2129","COUNTRY_CODE":"US","EPHEMERIS_TYPE":"0","MEAN_ANOMALY":"18.0337","RCS_SIZE":"LARGE","DECAY_DATE":null,"CLASSIFICATION_TYPE":"U","PERIOD":"91.532","APOAPSIS":"352.660","SITE":"AFETR","INCLINATION":"53.0440","OBJECT_TYPE":"PAYLOAD"},{"CENTER_NAME":"EARTH","ARG_OF_PERICENTER":"110.1941","REF_FRAME":"TEME","TIME_SYSTEM":"UTC","BSTAR":"0.00008131200000","RA_OF_ASC_NODE":"36.0817","TLE_LINE2":"2 47728  53.0578  36.0817 0001802 110.1941 249.9242 15.06391162 29659","REV_AT_EPOCH":"2965","MEAN_ELEMENT_THEORY":"SGP4","LAUNCH_DATE":"2021-03-04","PERIAPSIS":"545.993","MEAN_MOTION_DOT":"0.00000929","ECCENTRICITY":"0.00018020","FILE":"3108751","OBJECT_ID":"2021-017G","MEAN_MOTION":"15.06391162","EPOCH":"2021-09-04T12:15:28.774944","ELEMENT_SET_NO":"999","TLE_LINE1":"1 47728U 21017G   21247.51074971  .00000929  00000-0  81312-4 0  9998","GP_ID":"184105703","MEAN_MOTION_DDOT":"0.0000000000000","NORAD_CAT_ID":"47728","COUNTRY_CODE":"US","EPHEMERIS_TYPE":"0","SEMIMAJOR_AXIS":"6925.376","OBJECT_NAME":"STARLINK-2131","MEAN_ANOMALY":"249.9242","PERIOD":"95.593","APOAPSIS":"548.489","DECAY_DATE":null,"RCS_SIZE":"LARGE","CLASSIFICATION_TYPE":"U","SITE":"AFETR","INCLINATION":"53.0578","OBJECT_TYPE":"PAYLOAD"},{"BSTAR":"0.00026479000000","RA_OF_ASC_NODE":"348.0697","TLE_LINE2":"2 47729  53.0435 348.0697 0004869 348.2991  11.7913 15.73323343 30279","MEAN_ELEMENT_THEORY":"SGP4","REV_AT_EPOCH":"3027","LAUNCH_DATE":"2021-03-04","PERIAPSIS":"346.133","ECCENTRICITY":"0.00048690","MEAN_MOTION_DOT":"0.00036926","CENTER_NAME":"EARTH","ARG_OF_PERICENTER":"348.2991","REF_FRAME":"TEME","TIME_SYSTEM":"UTC","ELEMENT_SET_NO":"999","TLE_LINE1":"1 47729U 21017H   21247.66842510  .00036926  00000-0  26479-3 0  9995","MEAN_MOTION_DDOT":"0.0000000000000","GP_ID":"184104951","FILE":"3108751","OBJECT_ID":"2021-017H","EPOCH":"2021-09-04T16:02:31.928640","MEAN_MOTION":"15.73323343","EPHEMERIS_TYPE":"0","COUNTRY_CODE":"US","SEMIMAJOR_AXIS":"6727.544","OBJECT_NAME":"STARLINK-2132","MEAN_ANOMALY":"11.7913","NORAD_CAT_ID":"47729","SITE":"AFETR","INCLINATION":"53.0435","OBJECT_TYPE":"PAYLOAD","PERIOD":"91.526","APOAPSIS":"352.684","DECAY_DATE":null,"RCS_SIZE":"LARGE","CLASSIFICATION_TYPE":"U"},{"FILE":"3108751","OBJECT_ID":"2021-017J","EPOCH":"2021-09-04T11:11:04.208352","MEAN_MOTION":"15.06403114","ELEMENT_SET_NO":"999","TLE_LINE1":"1 47730U 21017J   21247.46602093  .00000443  00000-0  48642-4 0  9997","MEAN_MOTION_DDOT":"0.0000000000000","GP_ID":"184105201","CENTER_NAME":"EARTH","ARG_OF_PERICENTER":"99.2670","REF_FRAME":"TEME","TIME_SYSTEM":"UTC","BSTAR":"0.00004864200000","TLE_LINE2":"2 47730  53.0574  51.2837 0002132  99.2670 260.8560 15.06403114 29388","RA_OF_ASC_NODE":"51.2837","REV_AT_EPOCH":"2938","MEAN_ELEMENT_THEORY":"SGP4","LAUNCH_DATE":"2021-03-04","PERIAPSIS":"545.728","MEAN_MOTION_DOT":"0.00000443","ECCENTRICITY":"0.00021320","PERIOD":"95.592","APOAPSIS":"548.680","DECAY_DATE":null,"RCS_SIZE":"LARGE","CLASSIFICATION_TYPE":"U","SITE":"AFETR","INCLINATION":"53.0574","OBJECT_TYPE":"PAYLOAD","NORAD_CAT_ID":"47730","EPHEMERIS_TYPE":"0","COUNTRY_CODE":"US","SEMIMAJOR_AXIS":"6925.339","OBJECT_NAME":"STARLINK-2140","MEAN_ANOMALY":"260.8560"},{"MEAN_ELEMENT_THEORY":"SGP4","REV_AT_EPOCH":"2949","TLE_LINE2":"2 47731  53.0565  45.3610 0002224  92.8984 267.2259 15.06391345 29491","RA_OF_ASC_NODE":"45.3610","BSTAR":"0.00005730200000","MEAN_MOTION_DOT":"0.00000572","ECCENTRICITY":"0.00022240","LAUNCH_DATE":"2021-03-04","PERIAPSIS":"545.700","REF_FRAME":"TEME","ARG_OF_PERICENTER":"92.8984","CENTER_NAME":"EARTH","TIME_SYSTEM":"UTC","ELEMENT_SET_NO":"999","GP_ID":"184105453","MEAN_MOTION_DDOT":"0.0000000000000","TLE_LINE1":"1 47731U 21017K   21247.67200569  .00000572  00000-0  57302-4 0  9999","EPOCH":"2021-09-04T16:07:41.291616","MEAN_MOTION":"15.06391345","OBJECT_ID":"2021-017K","FILE":"3108751","OBJECT_NAME":"STARLINK-2141","SEMIMAJOR_AXIS":"6925.375","COUNTRY_CODE":"US","EPHEMERIS_TYPE":"0","MEAN_ANOMALY":"267.2259","NORAD_CAT_ID":"47731","INCLINATION":"53.0565","SITE":"AFETR","OBJECT_TYPE":"PAYLOAD","CLASSIFICATION_TYPE":"U","DECAY_DATE":null,"RCS_SIZE":"LARGE","APOAPSIS":"548.780","PERIOD":"95.593"},{"TIME_SYSTEM":"UTC","REF_FRAME":"TEME","ARG_OF_PERICENTER":"350.5500","CENTER_NAME":"EARTH","ECCENTRICITY":"0.00049160","MEAN_MOTION_DOT":"0.00005721","LAUNCH_DATE":"2021-03-04","PERIAPSIS":"346.362","MEAN_ELEMENT_THEORY":"SGP4","REV_AT_EPOCH":"3029","TLE_LINE2":"2 47732  53.0441 348.0638 0004916 350.5500   9.5424 15.73231981 30290","RA_OF_ASC_NODE":"348.0638","BSTAR":"0.00004510500000","MEAN_MOTION":"15.73231981","EPOCH":"2021-09-04T16:01:47.392896","OBJECT_ID":"2021-017L","FILE":"3108751","GP_ID":"184106203","MEAN_MOTION_DDOT":"0.0000000000000","TLE_LINE1":"1 47732U 21017L   21247.66790964  .00005721  00000-0  45105-4 0  9991","ELEMENT_SET_NO":"999","NORAD_CAT_ID":"47732","MEAN_ANOMALY":"9.5424","OBJECT_NAME":"STARLINK-2142","SEMIMAJOR_AXIS":"6727.804","COUNTRY_CODE":"US","EPHEMERIS_TYPE":"0","CLASSIFICATION_TYPE":"U","DECAY_DATE":null,"RCS_SIZE":"LARGE","APOAPSIS":"352.976","PERIOD":"91.531","OBJECT_TYPE":"PAYLOAD","INCLINATION":"53.0441","SITE":"AFETR"},{"NORAD_CAT_ID":"47733","MEAN_ANOMALY":"268.3093","SEMIMAJOR_AXIS":"6925.346","OBJECT_NAME":"STARLINK-2143","EPHEMERIS_TYPE":"0","COUNTRY_CODE":"US","DECAY_DATE":null,"RCS_SIZE":"LARGE","CLASSIFICATION_TYPE":"U","PERIOD":"95.592","APOAPSIS":"548.169","OBJECT_TYPE":"PAYLOAD","SITE":"AFETR","INCLINATION":"53.0567","TIME_SYSTEM":"UTC","REF_FRAME":"TEME","CENTER_NAME":"EARTH","ARG_OF_PERICENTER":"91.8054","MEAN_MOTION_DOT":"0.00001043","ECCENTRICITY":"0.00013830","LAUNCH_DATE":"2021-03-04","PERIAPSIS":"546.254","RA_OF_ASC_NODE":"56.4014","TLE_LINE2":"2 47733  53.0567  56.4014 0001383  91.8054 268.3093 15.06400725 29365","MEAN_ELEMENT_THEORY":"SGP4","REV_AT_EPOCH":"2936","BSTAR":"0.00008890300000","OBJECT_ID":"2021-017M","MEAN_MOTION":"15.06400725","EPOCH":"2021-09-04T11:03:50.208192","FILE":"3108751","MEAN_MOTION_DDOT":"0.0000000000000","GP_ID":"184104452","TLE_LINE1":"1 47733U 21017M   21247.46099778  .00001043  00000-0  88903-4 0  9991","ELEMENT_SET_NO":"999"}];
